SAUDISAT 1C (SO-50)     
1 27607U 02058C   26157.70320938  .00001144  00000+0  15193-3 0  9991
2 27607  64.5504 161.4222 0075466 264.4088  94.8408 14.83024338262904
SAUDISAT 2              
1 28371U 04025F   26157.72556319  .00000318  00000+0  82010-4 0  9997
2 28371  98.5506 157.4372 0024085 331.5636  28.4246 14.56677808164224
SAUDISAT 3              
1 31118U 07012B   26158.12634505  .00000298  00000+0  56388-4 0  9994
2 31118  98.1452 108.5206 0013267 258.7826 101.1890 14.71419750 26269
PISAT                   
1 41784U 16059B   26157.79037896  .00001044  00000+0  18530-3 0  9993
2 41784  97.8178 158.6901 0027691 237.2056 122.6482 14.68965750518219
FLYING LAPTOP           
1 42831U 17042G   26158.31997583  .00004419  00000+0  34861-3 0  9991
2 42831  97.4653 314.2358 0019010 153.8139 206.4051 15.01081705484979
SALSAT                  
1 46495U 20068K   26157.74488443  .00010129  00000+0  35498-3 0  9991
2 46495  97.8851 160.1753 0009049 349.8452  10.2602 15.29647918313761
